GPS BIIR-2  (PRN 13)    
1 24876U 97035A   21344.40049524  .00000081  00000-0  00000-0 0  9992
2 24876  55.4884 163.0488 0055641  54.6958 305.8432  2.00562956178861
GPS BIIR-4  (PRN 20)    
1 26360U 00025A   21344.67834470 -.00000039  00000-0  00000-0 0  9990
2 26360  53.9083  86.6764 0054134 177.7578 110.3846  2.00559821158181
GPS BIIR-8  (PRN 16)    
1 27663U 03005A   21344.92828123 -.00000059  00000-0  00000-0 0  9996
2 27663  55.6451 280.5456 0123284  38.5688  47.2758  2.00575656138236
GPS BIIR-9  (PRN 21)    
1 27704U 03010A   21344.94556619 -.00000102  00000-0  00000-0 0  9997
2 27704  54.9458  30.9477 0245750 299.8425  17.7192  2.00571372137026
GPS BIIR-10 (PRN 22)    
1 28129U 03058A   21344.59102381 -.00000033  00000-0  00000-0 0  9998
2 28129  53.7201  89.3100 0069658 308.8564  50.5187  2.00564554131700
GPS BIIR-11 (PRN 19)    
1 28190U 04009A   21344.35777419 -.00000074  00000-0  00000-0 0  9992
2 28190  56.1078 341.4965 0087014 114.3172  81.3903  2.00564387129854
GPS BIIR-13 (PRN 02)    
1 28474U 04045A   21344.95999200 -.00000102  00000-0  00000-0 0  9999
2 28474  55.2767  31.0161 0207890 275.6293 262.5993  2.00566168125357
GPS BIIRM-1 (PRN 17)    
1 28874U 05038A   21344.80438420 -.00000073  00000-0  00000-0 0  9999
2 28874  56.1821 338.9035 0139841 272.5694 268.2196  2.00558908118759
GPS BIIRM-2 (PRN 31)    
1 29486U 06042A   21344.54515920  .00000013  00000-0  00000-0 0  9990
2 29486  54.7389 216.7901 0103422  18.6900 251.3050  2.00565254111300
GPS BIIRM-3 (PRN 12)    
1 29601U 06052A   21344.61942639 -.00000056  00000-0  00000-0 0  9997
2 29601  55.6464 279.4888 0082238  69.9455 290.9488  2.00567565110320
GPS BIIRM-4 (PRN 15)    
1 32260U 07047A   21344.42466399  .00000073  00000-0  00000-0 0  9998
2 32260  53.2686 148.3775 0137199  60.3743 300.9827  2.00558521103723
GPS BIIRM-5 (PRN 29)    
1 32384U 07062A   21344.18884829 -.00000072  00000-0  00000-0 0  9997
2 32384  56.2954 339.6648 0015898 139.5858 182.6516  2.00551732102414
GPS BIIRM-6 (PRN 07)    
1 32711U 08012A   21344.34398157  .00000014  00000-0  00000-0 0  9994
2 32711  54.4951 215.7766 0155061 228.8018 129.9264  2.00558357100666
GPS BIIRM-8 (PRN 05)    
1 35752U 09043A   21344.89427847 -.00000025  00000-0  00000-0 0  9999
2 35752  54.9312  93.1300 0057529  57.1650 357.0002  2.00568588 90284
GPS BIIF-1  (PRN 25)    
1 36585U 10022A   21344.74079351 -.00000056  00000-0  00000-0 0  9994
2 36585  54.9247 275.1344 0099866  54.5227   7.0414  2.00555514 84510
GPS BIIF-2  (PRN 01)    
1 37753U 11036A   21344.49374153 -.00000099  00000-0  00000-0 0  9995
2 37753  56.5137  36.0695 0109529  49.9374 276.5845  2.00564159 76186
GPS BIIF-3  (PRN 24)    
1 38833U 12053A   21344.52357943  .00000022  00000-0  00000-0 0  9992
2 38833  53.5475 211.0940 0119643  44.4175 316.6116  2.00559736 66353
GPS BIIF-4  (PRN 27)    
1 39166U 13023A   21344.38500587 -.00000071  00000-0  00000-0 0  9993
2 39166  55.8176 335.3668 0096796  34.7069 325.9313  2.00566921 62790
GPS BIIF-5  (PRN 30)    
1 39533U 14008A   21344.38297114  .00000012  00000-0  00000-0 0  9998
2 39533  53.6458 216.5867 0054415 204.5678 155.2471  2.00570698 56599
GPS BIIF-6  (PRN 06)    
1 39741U 14026A   21344.16205541 -.00000098  00000-0  00000-0 0  9993
2 39741  56.4790  35.6090 0026948 298.3316  61.4483  2.00569249 55442
GPS BIIF-7  (PRN 09)    
1 40105U 14045A   21344.25512365  .00000078  00000-0  00000-0 0  9992
2 40105  54.6550 154.3587 0021516 107.0682 253.1738  2.00564916 52985
GPS BIIF-8  (PRN 03)    
1 40294U 14068A   21344.62513170 -.00000017  00000-0  00000-0 0  9996
2 40294  55.6766  95.4041 0036707  55.1409 305.1918  2.00558161 52121
GPS BIIF-9  (PRN 26)    
1 40534U 15013A   21344.75803341 -.00000057  00000-0  00000-0 0  9994
2 40534  53.8281 272.5125 0065242  16.7150 343.5182  2.00563972 48741
GPS BIIF-10 (PRN 08)    
1 40730U 15033A   21344.42104589 -.00000071  00000-0  00000-0 0  9992
2 40730  55.3209 334.2838 0069091   1.6062 358.4243  2.00561848 46903
GPS BIIF-11 (PRN 10)    
1 41019U 15062A   21344.47148878 -.00000016  00000-0  00000-0 0  9998
2 41019  55.6673  95.2491 0074387 214.8143 144.6872  2.00563142 44745
GPS BIIF-12 (PRN 32)    
1 41328U 16007A   21344.56574979  .00000081  00000-0  00000-0 0  9997
2 41328  54.8777 154.9710 0054339 224.9310 134.6359  2.00554444 42757
GPS BIII-1  (PRN 04)    
1 43873U 18109A   21345.01472844  .00000086  00000-0  00000+0 0  9992
2 43873  55.0585 157.3315 0016065 188.8854  29.4245  2.00563668 21948
GPS BIII-2  (PRN 18)    
1 44506U 19056A   21344.56416927 -.00000100  00000-0  00000-0 0  9996
2 44506  55.5841  36.5707 0020919 182.6234 332.4349  2.00568230 16982
GPS BIII-3  (PRN 23)    
1 45854U 20041A   21344.80884019 -.00000022  00000-0  00000-0 0  9990
2 45854  55.3837  93.8309 0018706 169.8836 103.0206  2.00561479 10955
GPS BIII-4  (PRN 14)    
1 46826U 20078A   21344.82605274 -.00000059  00000-0  00000-0 0  9996
2 46826  54.6964 277.7472 0012347 187.6826  68.1938  2.00566892  8420
